ADDRESS_ID,HOUSE_NUMBER,ADDRESS_LINE_1,POSTAL_CODE,CITY,COUNTRY_CODE,VALID_FROM,VALID_TO
1,01,61739 Ruskin Street,14-210,Iława,PL,09.02.2023,28.12.4194
2,04,15 Stephen Road,,Zaki Biam,NG,03.11.2022,09.03.5832
3,03,2523 Jenifer Trail,,Markaz Mudhaykirah,YE,08.03.2023,09.09.4489
4,03,151 Kipling Park,68264 CEDEX,Kingersheim,FR,11.02.2023,30.12.2704
5,02,50 Ludington Trail,,Bayt Līd,PS,14.05.2023,19.03.2122
6,01,31 Drewry Point,,Pithári,GR,29.10.2022,13.04.7813
7,03,0074 Sundown Point,,Dongchen,CN,12.01.2023,30.12.3223
8,04,53817 Luster Center,,Skoura,MA,05.12.2022,03.02.7678
9,03,62 7th Way,612091,Nizhneivkino,RU,26.12.2022,28.10.9915
10,05,6236 Bunting Road,34400-000,Raposos,BR,10.12.2022,10.08.2143
11,02,01257 Esch Terrace,,Xiangcunxiang,CN,05.01.2023,24.06.2809
12,05,5 Walton Hill,,Остров Пасхи,CL,06.04.2023,05.01.6289
13,02,38039 Macpherson Terrace,671178,Gusinoozyorsk,RU,18.10.2022,29.02.3644
14,01,28159 Florence Crossing,3228,Chajarí,AR,17.02.2023,01.09.3305
15,01,983 Manley Street,83344,Buenos Aires,MX,15.04.2023,03.01.8626
16,02,3 Judy Way,252257,Granada,CO,16.10.2022,27.03.5296
17,01,439 Green Court,3807,Morrelgonj,BD,16.05.2023,19.06.4862
18,03,71594 Mcbride Lane,,Topory,UA,16.03.2023,12.08.3807
19,04,0966 Independence Plaza,,Bondokodi,ID,10.05.2023,11.11.8795
20,05,676 Hooker Pass,731048,Líbano,CO,27.12.2022,05.02.9055
21,05,76171 Homewood Crossing,,Mengdong,CN,07.05.2023,12.09.3303
22,04,4 Pierstorff Circle,,Munturkaju,ID,12.05.2023,02.02.9812
23,05,80342 Clemons Crossing,,Okahandja,NA,02.11.2022,20.02.9610
24,04,9 Dixon Road,,Quinocay,PE,21.10.2022,03.11.3148
25,02,29522 Nancy Alley,,Kampungladang,ID,15.02.2023,30.11.3171
26,02,61 Randy Hill,4503,San Antonio,AR,17.02.2023,22.07.9295
27,02,54 Atwood Park,90055,Los Angeles,US,23.03.2023,04.06.9929
28,03,23 Pankratz Court,,Cigalontang,ID,03.10.2022,11.03.5009
29,03,40077 Lotheville Park,,Zicheng,CN,29.10.2022,30.11.6454
30,03,220 Debs Avenue,747 30,Alunda,SE,14.12.2022,04.05.3815
31,05,8 Westridge Crossing,,Chunyang,CN,05.11.2022,18.11.8956
32,04,26 Hollow Ridge Way,332 24,Gislaved,SE,23.01.2023,02.11.2079
33,01,56505 Heffernan Lane,63150,Saint Louis,US,14.02.2023,26.06.3168
34,05,1746 Clove Avenue,,Yunxi,CN,27.12.2022,15.12.6410
35,03,4 Arapahoe Terrace,,Tohong,ID,10.01.2023,30.08.6797
36,05,39 Corben Alley,1808,Nangka,PH,30.09.2022,05.08.4032
37,04,53 Hanson Center,23-412,Łukowa,PL,25.04.2023,27.06.6392
38,05,7 Butterfield Plaza,5201,Bañga,PH,02.02.2023,16.11.6874
39,01,27294 Darwin Avenue,,Polowat,FM,11.04.2023,13.07.6049
40,02,098 Mayfield Trail,,Kamalaputi,ID,27.03.2023,20.03.6507
41,04,6871 Hudson Place,142720,Shcherbinka,RU,17.03.2023,28.02.2736
42,01,20 Sunbrook Plaza,,Jiufeng,CN,20.10.2022,04.01.2662
43,02,1 Fulton Plaza,P24,Cobh,IE,27.12.2022,26.06.9806
44,02,0 Manufacturers Pass,37550-000,Pouso Alegre,BR,26.04.2023,13.11.7044
45,01,68 Rockefeller Terrace,,Zhouzhuang,CN,04.10.2022,22.10.6887
46,03,35031 Cody Drive,,Shibīn al Qanāţir,EG,15.02.2023,17.01.6177
47,04,0860 Springview Parkway,425239,Medvedevo,RU,10.03.2023,25.08.4415
48,04,52410 2nd Street,97000-000,Santa Maria,BR,09.01.2023,27.06.3781
49,04,8 Victoria Place,,Jiagao,CN,14.11.2022,31.01.5507
50,05,43 Talisman Parkway,,Huangjiazhai,CN,27.10.2022,11.06.9680
51,05,434 Montana Place,65590-000,Barreirinhas,BR,15.04.2023,05.11.6789
52,05,6 Debs Park,,Kukuluk,ID,28.02.2023,02.04.5666
53,03,95273 Acker Trail,462 36,Vänersborg,SE,11.05.2023,10.04.4471
54,03,49799 Park Meadow Pass,,Oke Mesi,NG,13.12.2022,01.02.9372
55,05,74243 Hintze Drive,,Raejeru,ID,31.10.2022,07.12.4101
56,01,60866 Fremont Lane,,Loujiadian,CN,09.12.2022,08.10.8998
57,02,996 Riverside Plaza,2437,Amagbagan,PH,17.04.2023,24.08.4337
58,05,337 Gateway Place,57-320,Polanica-Zdrój,PL,28.11.2022,19.12.5884
59,02,19 Ohio Terrace,215119,Vyaz’ma,RU,17.02.2023,02.06.8663
60,02,39 Coleman Alley,95852,Sacramento,US,12.05.2023,31.10.3634
61,04,83901 Columbus Hill,50204 CEDEX,Coutances,FR,11.05.2023,10.10.7207
62,02,960 Nevada Place,30110,Trang,TH,07.01.2023,12.12.6337
63,05,2514 Northfield Crossing,29215,Columbia,US,16.10.2022,13.11.7757
64,01,68381 Talmadge Alley,,Lantera,ID,14.05.2023,05.06.3998
65,01,27 Nobel Junction,,Rokytne,UA,21.11.2022,04.10.7039
66,02,9 Bluestem Plaza,,Goght’,AM,20.01.2023,26.05.5198
67,01,0304 Hovde Road,735 41,Petřvald,CZ,29.04.2023,30.07.8318
68,04,6 Clemons Place,385798,Groznyy,RU,17.12.2022,10.10.7468
69,04,03768 Victoria Pass,,Serhetabat,TM,30.03.2023,03.08.5059
70,01,27952 Cherokee Point,78430-000,Nortelândia,BR,21.11.2022,25.07.5511
71,02,3687 Golf View Crossing,,Chencun,CN,02.04.2023,22.04.3718
72,05,16024 Arrowood Point,907 31,Umeå,SE,06.04.2023,11.12.5298
73,03,5 Granby Hill,,Karipidita,ID,19.02.2023,10.04.5979
74,05,41 Merry Crossing,37-224,Pantalowice,PL,17.11.2022,05.02.4155
75,01,03322 Mayer Center,76404 CEDEX,Fécamp,FR,29.11.2022,19.10.8512
76,04,99 Stone Corner Way,,Xingbin,CN,18.12.2022,08.07.5521
77,05,6 Namekagon Alley,2580-306,Alenquer,PT,13.12.2022,06.11.9994
78,01,4 Fuller Terrace,38-471,Wojaszówka,PL,15.12.2022,13.08.9677
79,03,04 Porter Circle,4820-781,Castanheira,PT,21.12.2022,10.10.7849
80,04,74 Prairieview Street,,Mopti,ML,29.11.2022,31.08.7182
81,05,1968 Anniversary Parkway,,Long’anqiao,CN,25.12.2022,18.03.6721
82,01,0675 Sachs Plaza,09-470,Bodzanów,PL,22.01.2023,03.08.5948
83,03,64897 Jenna Terrace,1497,Germiston,ZA,25.10.2022,08.07.3673
84,01,8913 Lyons Trail,5311,Saidpur,BD,27.11.2022,02.10.4205
85,04,1268 Memorial Circle,,Monguno,NG,04.01.2023,05.11.9543
86,04,7 Bashford Center,,Skaramangás,GR,16.10.2022,04.03.9465
87,05,89233 Mcbride Place,,Damaturu,NG,05.02.2023,27.12.2744
88,01,5725 Southridge Terrace,83092 CEDEX,Toulon,FR,10.10.2022,24.02.9977
89,01,332 Prentice Parkway,,Drahovo,UA,09.04.2023,23.10.9821
90,04,32416 Autumn Leaf Pass,,Hương Sơn,VN,21.11.2022,29.05.4227
91,03,569 Nova Trail,,Zhongling,CN,07.12.2022,13.05.2121
92,04,65 Katie Pass,96-130,Głuchów,PL,13.02.2023,02.03.8322
93,05,80641 Messerschmidt Crossing,,Dachong,CN,20.03.2023,18.06.2299
94,01,3793 Holy Cross Place,197720,Zelenogorsk,RU,06.04.2023,22.01.5095
95,02,4 Hooker Park,386323,Nizhniye Achaluki,RU,11.12.2022,22.01.6132
96,04,50 Lake View Junction,,Yanglong,CN,09.12.2022,18.06.7767
97,01,39 Bay Plaza,,Xiaoyi,CN,29.11.2022,02.05.8602
98,05,898 Blaine Hill,,Kabo,CF,26.04.2023,20.05.9268
99,05,6 Ryan Junction,31403 CEDEX 9,Toulouse,FR,10.03.2023,29.04.3700
100,03,85 Pepper Wood Court,,Talok,ID,29.03.2023,31.08.7281
101,01,90359 Grayhawk Terrace,4500-695,Nogueira da Regedoura,PT,28.11.2022,18.08.5461
102,01,74445 Merrick Alley,,Lixin,CN,01.04.2023,26.11.6538
103,04,0 Blackbird Point,,Lhari,CN,06.02.2023,14.10.8889
104,03,91420 Miller Avenue,5602,Libacao,PH,15.01.2023,25.03.5221
105,01,9702 Jenna Hill,673550,Sychëvo,RU,07.10.2022,23.08.5189
106,03,89503 Sloan Circle,,Sonder,ID,09.03.2023,26.01.6378
107,02,9023 Nevada Point,,Suleja,NG,27.02.2023,10.01.3559
108,01,28 Nobel Plaza,,Dame-Marie,HT,03.02.2023,23.12.3438
109,01,24 Arkansas Drive,556 31,Jönköping,SE,24.11.2022,29.08.3536
110,03,843 Mayer Hill,,Waina,CN,18.05.2023,08.07.9483
111,02,30 Clemons Center,,Höshigiyn-Ar,MN,15.10.2022,02.07.3384
112,05,207 Schiller Point,9021,Libertad,PH,13.12.2022,05.07.6514
113,02,07 Garrison Place,368326,Khadzhalmakhi,RU,23.11.2022,05.12.3164
114,01,171 Summit Pass,574 35,Vetlanda,SE,21.10.2022,27.02.2464
115,03,1 Merrick Lane,39351,Ahmadpur Siāl,PK,01.10.2022,18.11.5093
116,02,5771 Village Trail,,Nanhuatang,CN,07.04.2023,10.04.2452
117,05,4 Lien Parkway,663083,Ovsyanka,RU,20.03.2023,06.12.4753
118,05,977 Bluejay Road,,Ambilobe,MG,07.05.2023,08.04.5141
119,01,47708 Garrison Way,2424,Anulid,PH,04.01.2023,05.09.8613
120,03,6621 David Hill,,Xishiqiao,CN,22.02.2023,13.07.3065
121,05,1266 Farragut Junction,32-593,Libiąż,PL,12.01.2023,21.07.2684
122,02,94 Burning Wood Pass,,San José,HN,30.10.2022,29.06.3366
123,04,324 Becker Park,,Hexi,CN,02.12.2022,18.12.3668
124,03,035 Nevada Way,,Khoronk’,AM,23.02.2023,24.03.9690
125,02,0884 Utah Way,,Erjia,CN,27.02.2023,15.08.4712
126,04,8 Shopko Drive,59-225,Chojnów,PL,04.02.2023,23.07.3738
127,05,12 Hansons Junction,,Jimo,CN,09.12.2022,26.03.8913
128,02,86628 Erie Way,,Boaco,NI,02.11.2022,11.04.6907
129,04,79316 Jana Hill,,Magang,CN,10.12.2022,29.03.6288
130,03,49 Briar Crest Alley,,Melíki,GR,13.02.2023,29.09.8961
131,02,91 Manley Plaza,,Lampihung,ID,21.11.2022,18.02.2474
132,01,8 Sutteridge Drive,5302,Aborlan,PH,15.05.2023,01.05.7988
133,05,93 Sunfield Alley,453 35,Lysekil,SE,31.10.2022,18.07.8533
134,05,608 Hoepker Circle,,Songshu,CN,05.11.2022,03.12.2957
135,02,73 Namekagon Trail,,Banatski Dvor,RS,01.03.2023,20.05.7599
136,04,1614 Buell Hill,054028,Marinilla,CO,03.04.2023,30.04.5308
137,03,18 Oakridge Parkway,,Maghār,IL,01.03.2023,11.08.7204
138,01,45 Fremont Way,85410,Sievi,FI,18.04.2023,24.09.5206
139,04,2 Hanover Center,,‘Ajlūn,JO,18.11.2022,31.12.7582
140,05,7 Graedel Alley,365-0023,Shōbu,JP,13.03.2023,08.12.6956
141,03,0 Stuart Junction,,Kangping,CN,23.04.2023,07.05.2084
142,01,3 Westridge Center,251808,Chipaque,CO,10.12.2022,26.08.2825
143,05,06 Upham Hill,,Kohtla-Järve,EE,21.01.2023,19.08.3197
144,01,4226 Lyons Place,11210,Brooklyn,US,28.12.2022,02.04.7111
145,02,0 Golden Leaf Lane,4960-462,Regueiro,PT,29.12.2022,31.10.4539
146,03,84457 Mallard Park,,Wonokerso,ID,10.12.2022,26.06.8542
147,02,954 Monument Center,,Glugur Krajan,ID,03.04.2023,12.10.3982
148,03,3 Bluestem Avenue,,Spitak,AM,10.11.2022,19.03.4719
149,04,875 Pine View Junction,,Hekou,CN,22.10.2022,01.05.7440
150,02,6722 Quincy Park,,Joševa,RS,14.02.2023,17.06.3760
151,05,58395 Carpenter Court,,Zarzis,TN,23.03.2023,16.04.3563
152,02,612 Crownhardt Avenue,MD-4006,Maiac,MD,02.03.2023,23.11.3271
153,01,2978 North Place,,Jixing,CN,10.01.2023,11.09.3650
154,03,88809 Johnson Court,,Fangzheng,CN,07.03.2023,27.02.5714
155,02,34512 Lunder Drive,T4T,Rocky Mountain House,CA,09.11.2022,26.11.2763
156,05,51455 Pearson Circle,,Gaojian,CN,23.04.2023,03.06.5080
157,01,2506 Sunbrook Crossing,,Wujing,CN,14.11.2022,10.10.9975
158,01,5 Forest Run Crossing,,Nangkasari,ID,12.10.2022,25.04.9102
159,01,2 Daystar Center,2433,Suba,PH,07.11.2022,07.10.9804
160,03,24687 Victoria Junction,,Kotor,ME,11.12.2022,20.06.9203
161,05,3 Village Green Circle,,Semang,ID,31.03.2023,29.03.5003
162,05,3893 Hanson Road,,K’olīto,ET,19.10.2022,23.10.8102
163,02,39244 Alpine Street,,Mungui,PE,18.05.2023,14.12.2499
164,04,01868 Kedzie Center,,Chuangwang,CN,12.02.2023,20.01.3351
165,01,76 Commercial Court,,Fīrūzābād,IR,30.03.2023,22.05.3306
166,02,221 Autumn Leaf Terrace,,Rozvadov,UA,09.11.2022,01.12.4910
167,02,79 Glacier Hill Pass,,Machinga,MW,16.11.2022,30.08.7513
168,04,9 Dixon Place,93726,Fresno,US,12.12.2022,27.08.5922
169,02,53 Morrow Crossing,,Brahin,BY,11.11.2022,16.04.2356
170,01,4 Katie Parkway,551 84,Jönköping,SE,03.03.2023,19.06.9776
171,02,599 Forster Hill,457 81,Tanumshede,SE,17.03.2023,19.05.9743
172,01,0160 Fallview Pass,,Chating,CN,28.03.2023,21.04.4355
173,04,46 Division Drive,,Hrodna,BY,27.12.2022,16.02.5063
174,05,7786 Schiller Parkway,,Xigaoshan,CN,02.05.2023,24.04.4101
175,03,638 Sutteridge Lane,22009,El Adelanto,GT,17.11.2022,09.02.7565
176,01,69771 Pond Alley,,Tlogoagung,ID,10.03.2023,25.02.2861
177,03,3 Fuller Junction,,Ambalavao,MG,21.01.2023,17.06.9287
178,04,6485 Michigan Hill,,Vichadero,UY,01.03.2023,24.09.8211
179,03,174 Troy Parkway,,Oubei,CN,22.02.2023,05.04.6349
180,01,97 Fisk Center,V9G,Ladysmith,CA,30.11.2022,29.08.9466
181,03,95 Wayridge Terrace,67210,Sakrand,PK,15.05.2023,03.10.9833
182,01,2215 Hintze Plaza,5155-205,Freixo de Numão,PT,08.12.2022,07.06.4069
183,02,23 Mccormick Way,87-330,Jabłonowo Pomorskie,PL,03.01.2023,04.08.7459
184,01,28 Nancy Way,,Bengga,ID,27.10.2022,16.03.4180
185,05,22 Vera Junction,3312,Cordon,PH,08.11.2022,06.01.9668
186,03,86 Bluejay Way,,Matoupu,CN,26.04.2023,03.03.7966
187,02,99094 Vernon Circle,,Tiecun,CN,19.10.2022,15.07.7450
188,02,7 Morrow Point,,Buôn Ma Thuột,VN,07.04.2023,25.03.8037
189,04,2179 Farwell Circle,5180-015,Fornos,PT,27.01.2023,26.10.9426
190,05,6 Village Crossing,3358,Apóstoles,AR,11.04.2023,29.04.3668
191,05,344 Spohn Street,,Fakaifou Village,TV,05.10.2022,02.09.8336
192,02,53313 Eastlawn Point,09-200,Sierpc,PL,31.03.2023,04.06.7697
193,04,2 Spenser Way,,Banyulegi,ID,04.01.2023,09.06.5259
194,01,38488 Monica Terrace,,Deranitan,ID,21.12.2022,05.03.7975
195,02,5276 Manitowish Junction,6525,Masoli,PH,19.02.2023,22.05.5977
196,05,415 Pankratz Avenue,2530-700,São Bartolomeu,PT,03.03.2023,14.12.5118
197,04,294 Crest Line Terrace,345 02,Kout na Šumavě,CZ,08.03.2023,01.07.7590
198,04,9743 Brentwood Alley,8421,Nālchiti,BD,03.04.2023,28.01.8665
199,01,0 Dwight Crossing,,Haruai,ID,24.01.2023,13.05.9172
200,04,09103 Dahle Center,,Dar Chabanne,TN,17.01.2023,08.10.7585
201,02,1731 Cottonwood Way,4803,Baras,PH,24.11.2022,02.08.2787
202,03,0 Green Park,,Kotes,ID,12.10.2022,06.12.9924
203,04,108 Warner Parkway,10409,Berlin,DE,02.10.2022,26.12.4341
204,01,61 Starling Parkway,6419,San Vicente,PH,18.05.2023,28.09.5780
205,03,31469 Carpenter Way,869-6111,Hagi,JP,12.01.2023,22.01.5064
206,04,06 Red Cloud Trail,,Baytā al Fawqā,PS,31.10.2022,19.05.9798
207,05,84 Truax Plaza,,Lagunas,PE,28.10.2022,22.12.4532
208,01,8657 Prairieview Drive,2310,Culubasa,PH,13.12.2022,21.03.9510
209,03,81876 Saint Paul Terrace,,Sergelen,MN,17.12.2022,02.02.2506
210,04,37 Novick Crossing,BS41,Bristol,GB,06.05.2023,16.10.4915
211,04,8561 Anniversary Street,,Pandangan Kulon,ID,18.05.2023,02.06.8306
212,03,8094 Merrick Way,10520,Chamni,TH,06.03.2023,19.10.2404
213,02,4061 Jay Way,1097,Budapest,HU,21.01.2023,07.02.5666
214,03,515 Amoth Street,N2M,Matagami,CA,09.02.2023,01.11.6473
215,05,16203 6th Place,,Tokār,SD,28.11.2022,06.04.2217
216,03,77 Bellgrove Point,77000-000,Palmas,BR,17.01.2023,05.01.3724
217,05,23 Kedzie Road,33416,West Palm Beach,US,17.12.2022,03.12.6820
218,02,33134 Hagan Avenue,6090-608,Salvador,PT,01.11.2022,06.03.6708
219,01,57 Manitowish Pass,,Qabaqçöl,AZ,09.11.2022,08.05.6442
220,03,2371 Kinsman Place,,Hongshanzui,CN,25.03.2023,31.08.6723
221,05,769 Clarendon Trail,152450,Kukoboy,RU,13.03.2023,24.09.3460
222,02,1347 Troy Drive,88807,Kota Kinabalu,MY,07.02.2023,12.11.5513
223,03,4 Mandrake Road,,Derbur,CN,31.10.2022,30.06.6563
224,01,98 Macpherson Lane,674 01,Trnava,CZ,02.03.2023,14.12.2600
225,05,9483 Nevada Alley,,Triánta,GR,19.12.2022,23.10.5857
226,04,1 Evergreen Terrace,,Pamakayo,ID,18.03.2023,10.12.6860
227,03,1713 Sunfield Crossing,,Bayt Sāḩūr,PS,27.04.2023,13.04.4274
228,05,9 Farragut Circle,,Bangbayang,ID,01.12.2022,25.05.9136
229,02,56341 Gina Plaza,7005,Alimono,PH,10.05.2023,09.11.3192
230,03,0 John Wall Place,18-301,Zambrów,PL,21.12.2022,15.12.8265
231,04,57 Vermont Terrace,567 24,Vaggeryd,SE,31.10.2022,01.08.8153
232,05,9 Mccormick Drive,,Gombe,UG,20.03.2023,31.03.3066
233,04,9061 Northfield Way,,Rantaupanjangkiri,ID,29.03.2023,28.11.4508
234,03,270 Talisman Plaza,,Kuala Baru,ID,17.01.2023,20.01.3621
235,02,3 Farwell Plaza,,Kawambwa,ZM,06.10.2022,11.02.3612
236,02,1 Portage Avenue,V3H,Port Moody,CA,22.12.2022,08.07.8615
237,02,6638 Fairfield Junction,646604,Inya,RU,16.12.2022,30.12.6896
238,05,9927 Sachs Hill,6335,General Luna,PH,15.10.2022,07.05.6170
239,01,709 Elka Way,346050,Tarasovskiy,RU,11.01.2023,02.11.6886
240,02,5 Northridge Way,37-232,Jawornik Polski,PL,14.03.2023,11.07.7465
241,01,37 Sutteridge Drive,4939,Ardino,BG,06.11.2022,30.12.8520
242,02,78 Melby Terrace,,Chonogol,MN,09.02.2023,07.10.5844
243,05,52807 Hermina Hill,374 53,Asarum,SE,15.12.2022,26.12.4128
244,02,79190 Pennsylvania Trail,,Goúvai,GR,23.11.2022,06.11.9602
245,01,6728 Sachtjen Street,76350-000,Rubiataba,BR,07.11.2022,05.08.3984
246,02,7 Holmberg Center,,Jenamas,ID,25.03.2023,02.05.4878
247,05,26774 Norway Maple Point,763 33,Štítná nad Vláří,CZ,28.02.2023,29.04.5378
248,02,396 Hermina Center,,Kunheda Woerzu Manzu,CN,09.12.2022,10.10.3034
249,01,1 Portage Parkway,,Al Hāshimīyah,PS,14.04.2023,07.07.4370
250,02,3 Delaware Alley,,Sheshory,UA,03.04.2023,28.07.7656
251,05,65 Tomscot Alley,,Krajan,ID,30.04.2023,17.09.6754
252,01,115 Messerschmidt Trail,,Qiagai,CN,26.11.2022,25.07.2604
253,03,68 Grover Hill,,Kolindrós,GR,06.12.2022,23.01.3801
254,04,4 Drewry Circle,,Henggouqiao,CN,14.03.2023,11.02.4649
255,04,65511 East Lane,,San Nicolás,HN,27.02.2023,26.03.5017
256,02,7 Glacier Hill Junction,,Gò Dầu,VN,06.03.2023,01.10.5953
257,02,03 Browning Drive,821 94,Bollnäs,SE,08.04.2023,15.12.6396
258,03,63490 Meadow Vale Drive,5200,Sapol,PH,05.11.2022,07.10.8277
259,01,15246 Northfield Court,6671,Riversdale,ZA,30.01.2023,19.03.2565
260,04,225 Grayhawk Trail,,Ipuh,ID,03.02.2023,10.07.4911
261,03,6 Anthes Street,1711,Tapayan,PH,24.02.2023,16.01.2045
262,05,7196 Columbus Way,1312,Dhaka,BD,16.11.2022,27.10.5649
263,03,00337 Di Loreto Court,,Rajūzah,YE,20.12.2022,29.01.6131
264,03,2 Gerald Lane,,Ntoum,GA,23.12.2022,03.06.3635
265,02,932 Scott Center,357128,Nevinnomyssk,RU,06.12.2022,20.11.9837
266,05,10045 Memorial Hill,,Waerana,ID,16.05.2023,14.05.4630
267,01,1114 Everett Pass,,Kými,GR,21.12.2022,03.01.2089
268,02,068 Holmberg Circle,,Liangkou,CN,03.02.2023,05.11.3807
269,04,6 Manley Trail,,Danauparis,ID,11.05.2023,06.11.3527
270,05,95850 Crowley Plaza,14604,Rochester,US,14.02.2023,01.08.4731
271,02,09 Milwaukee Point,30815,Independencia,MX,16.01.2023,08.01.9193
272,05,8 Ridgeview Circle,62400-000,Camocim,BR,20.10.2022,20.05.2832
273,02,8 La Follette Circle,6001,Consolacion,PH,07.02.2023,12.07.5180
274,04,71719 Esker Hill,,Dongyong,CN,30.10.2022,14.04.7553
275,02,9 Heath Road,,Doloon,MN,05.02.2023,11.08.2797
276,03,8575 Sauthoff Parkway,,Jinzhou,CN,24.12.2022,03.10.9120
277,01,2 Waywood Crossing,102213,Gazimurskiy Zavod,RU,17.04.2023,26.03.4338
278,03,0 Bayside Way,52600,La Palma,MX,31.03.2023,13.02.5025
279,03,207 Darwin Alley,133 34,Saltsjöbaden,SE,28.02.2023,10.04.8199
280,02,3796 Lakeland Plaza,,Rungkang,ID,23.12.2022,11.02.5407
281,05,7714 Transport Parkway,63610-000,Mombaça,BR,12.11.2022,01.04.4509
282,01,18 Shopko Court,,Zhlobin,BY,14.03.2023,21.01.9944
283,03,07 Lien Place,,Guixi,CN,07.11.2022,25.03.3906
284,01,2969 Ridge Oak Junction,,Zhongbao,CN,13.11.2022,27.03.4141
285,03,5453 Reinke Center,3960,Hluhluwe,ZA,25.10.2022,01.09.2635
286,03,25386 Comanche Point,,Qianchuan,CN,08.05.2023,18.10.4400
287,01,35 Northport Road,,Liufu,CN,03.10.2022,28.12.4505
288,04,28 Erie Way,,La’ershan,CN,03.11.2022,29.05.6947
289,03,111 Alpine Hill,4620-357,Corgo,PT,16.10.2022,08.12.4348
290,05,6043 Orin Parkway,,Batusangkar,ID,19.02.2023,15.07.2608
291,03,950 Mifflin Point,516 01,Rychnov nad Kněžnou,CZ,06.03.2023,01.08.7624
292,05,88 Chinook Parkway,10505,Partido,DO,08.12.2022,26.05.3722
293,04,0 Doe Crossing Alley,MGR,Mġarr,MT,24.04.2023,31.08.4973
294,01,5425 Almo Court,51105,Sioux City,US,02.04.2023,13.12.9358
295,03,342 Northridge Center,38900-000,Bambuí,BR,05.03.2023,12.06.6294
296,01,8 Dwight Crossing,721 06,Västerås,SE,07.04.2023,07.11.7039
297,05,17 Crest Line Drive,,Kongkeshu,CN,16.04.2023,13.11.5610
298,05,0 Sutherland Lane,,Nemyriv,UA,16.03.2023,09.04.2570
299,05,1 Fieldstone Parkway,,Maintirano,MG,12.05.2023,11.05.9553
300,05,212 Marquette Pass,,Banjar Serangan,ID,11.11.2022,08.06.3527
301,05,30140 7th Road,97188 CEDEX,Jarry,GP,18.01.2023,01.11.3625
302,01,77 Graceland Hill,30201,Paraíso,CR,05.04.2023,03.07.9115
303,04,471 Sunbrook Avenue,,Settat,MA,28.01.2023,30.03.7738
304,01,23 Veith Alley,7207,Oroquieta,PH,03.01.2023,10.01.8389
305,04,8591 Ridgeway Hill,94409 CEDEX,Vitry-sur-Seine,FR,08.11.2022,28.05.3893
306,01,262 Grim Trail,,Jinhu,CN,24.04.2023,14.04.8874
307,03,1 Onsgard Road,,Lundo,ID,29.04.2023,04.09.6413
308,05,0304 Magdeline Center,12169,Berlin,DE,07.12.2022,04.05.8381
309,03,5349 Anthes Court,,Hongguang,CN,19.03.2023,05.06.3438
310,05,5 Brickson Park Parkway,,Fengqiao,CN,10.03.2023,21.12.3070
311,01,499 Talmadge Trail,672-8090,Shirahamachō-usazakiminami,JP,15.05.2023,08.03.4660
312,02,4871 Bunker Hill Street,13000-000,Campinas,BR,26.10.2022,14.02.2081
313,03,750 Nelson Road,601808,Sosnovyy Bor,RU,19.03.2023,29.12.4815
314,03,33 Charing Cross Crossing,K36,Castlepollard,IE,29.10.2022,18.12.8339
315,02,49932 Hauk Center,,Mangli,ID,08.05.2023,23.11.2497
316,01,194 Dovetail Hill,1370,København,DK,28.11.2022,21.11.8227
317,04,1 Maywood Way,,Guanqiao,CN,25.04.2023,21.11.3920
318,03,52 Eagle Crest Center,,Watodei,ID,12.03.2023,01.08.8328
319,02,315 Hollow Ridge Way,,Diriomo,NI,31.12.2022,17.01.6125
320,03,87780 Pierstorff Junction,,Koceljeva,RS,09.04.2023,18.02.9788
321,04,681 Golf Hill,83560-000,Itaperuçu,BR,17.04.2023,07.12.4559
322,02,34257 Moland Hill,7681,Paarl,ZA,24.10.2022,19.11.3147
323,02,86 Emmet Road,,Quảng Ngãi,VN,07.11.2022,16.08.6354
324,03,96 Fordem Plaza,0850,Dinahican,PH,15.01.2023,18.12.3518
325,02,2146 Del Mar Center,264 01,Sedlčany,CZ,29.11.2022,19.12.2335
326,04,11 Pleasure Lane,,Wujian,CN,02.11.2022,28.02.8954
327,03,11 David Terrace,,Sevan,AM,10.01.2023,27.05.8814
328,02,035 Susan Street,243302,Unecha,RU,05.01.2023,25.08.7761
329,04,4 Sheridan Hill,,Fanyang,CN,16.02.2023,30.09.9893
330,05,8 Monterey Trail,30120,Bua Yai,TH,26.02.2023,28.03.8918
331,02,368 Stuart Point,,Quankou,CN,25.10.2022,11.05.4469
332,03,055 Lawn Pass,1040,Čair,MK,11.03.2023,16.05.4804
333,05,4 Claremont Trail,09400,Yeniköy,TR,25.03.2023,20.06.2531
334,05,4 Clove Trail,3300-405,Sarzedo,PT,02.03.2023,17.02.9392
335,05,90549 Summit Lane,,Gunan,CN,12.12.2022,08.11.6393
336,03,980 Londonderry Parkway,,Arzakan,AM,30.03.2023,02.03.4512
337,05,336 Heffernan Circle,97600,Koungou,YT,25.04.2023,09.05.8367
338,02,85595 Warbler Terrace,9203,Matungao,PH,07.02.2023,16.02.8582
339,04,07134 Springview Drive,269 36,Båstad,SE,03.11.2022,04.05.7473
340,03,0 Mcbride Junction,,Zarrīn Shahr,IR,09.04.2023,20.09.4871
341,05,1109 Harbort Center,368209,Nizhniy Dzhengutay,RU,13.05.2023,23.12.8324
342,02,27 Hovde Center,27-440,Ćmielów,PL,14.01.2023,30.09.5725
343,04,400 Stuart Point,64650,La Escondida,MX,16.04.2023,22.01.4829
344,01,5998 Briar Crest Court,3317,Almafuerte,AR,28.12.2022,17.03.8289
345,05,3 Derek Parkway,,Ratilangi,ID,17.03.2023,21.05.5957
346,01,59 Granby Point,3940,Paamiut,GL,07.03.2023,27.12.7775
347,04,1 Columbus Trail,,Dagsar,CN,17.03.2023,26.07.8895
348,05,217 Del Mar Plaza,,Lyubar,UA,03.05.2023,13.12.8602
349,04,2984 Cottonwood Lane,52060,San Antonio,MX,09.11.2022,24.08.4822
350,05,0 4th Circle,,Guanzhuang,CN,16.02.2023,16.03.5212
351,01,345 Evergreen Center,,Cotahuasi,PE,11.04.2023,27.12.7530
352,04,49307 Lakeland Point,,Baota,CN,17.11.2022,27.09.6539
353,04,08005 Crest Line Place,7400,Olavarría,AR,02.01.2023,10.01.8446
354,01,5 Autumn Leaf Circle,276038,Mutis,CO,21.10.2022,11.06.2702
355,03,5356 Chinook Place,,Kadusirung Hilir,ID,13.10.2022,15.07.2089
356,03,93460 Transport Drive,90010,Los Angeles,US,02.05.2023,28.10.5318
357,02,53584 Clemons Lane,,Dongming,CN,24.11.2022,24.04.9719
358,02,7 Meadow Vale Way,,Al Ghāriyah,SY,07.04.2023,09.04.9838
359,02,252 Grover Point,,La Quebrada,VE,06.01.2023,18.07.7937
360,03,0 Swallow Park,,Banjar Dauhmargi,ID,21.12.2022,02.10.3201
361,01,48442 Melrose Hill,12021,La Reforma,GT,07.02.2023,15.12.8944
362,03,0 Rowland Lane,,Lubao,CD,20.11.2022,15.03.8027
363,03,78826 Hallows Plaza,,Singojuruh,ID,03.01.2023,28.04.9994
364,05,68 Fallview Lane,3510-868,Vila Chã do Monte,PT,16.12.2022,22.02.4771
365,02,3599 Pawling Avenue,92000,Pakham,TH,24.12.2022,18.09.4471
366,01,1916 East Way,,Cipari,ID,17.11.2022,28.09.4794
367,03,4 Toban Junction,9800,Maluko,PH,05.03.2023,09.10.3514
368,05,4291 Nobel Alley,,Māmūnīyeh,IR,04.02.2023,20.12.5659
369,05,40593 South Court,75483,Fovissste,MX,18.11.2022,25.11.8015
370,02,303 Anniversary Road,76115,Fort Worth,US,31.12.2022,28.02.7888
371,05,555 Homewood Lane,6904,Zevenaar,NL,07.04.2023,27.04.2440
372,01,950 Morrow Junction,5050-223,Peso da Régua,PT,13.04.2023,06.06.5213
373,03,5 Johnson Pass,,Yelenendorf,AZ,03.04.2023,27.02.7006
374,04,73 Caliangt Drive,,Lefengzhen,CN,13.02.2023,20.09.8252
375,05,0 Shasta Pass,68370-000,Altamira,BR,10.11.2022,19.05.5106
376,01,40 Bobwhite Plaza,,Bojawa,ID,02.02.2023,24.06.2736
377,03,6 Monica Drive,186810,Pitkyaranta,RU,25.04.2023,20.08.2876
378,03,66171 Monica Lane,87426,Cuauhtemoc,MX,06.11.2022,25.11.9674
379,03,84 Reindahl Avenue,,Auna,NG,18.12.2022,01.11.7085
380,02,7 Elmside Park,,Chaoyang,CN,15.04.2023,26.08.5018
381,04,3168 Rockefeller Point,,Xiaosong,CN,07.04.2023,03.03.9827
382,05,58 Manitowish Street,8717,Apurawan,PH,05.11.2022,10.03.4686
383,03,02204 Brown Junction,,Kanshan,CN,10.05.2023,21.07.4835
384,04,70 Goodland Park,1105,Manay,PH,06.12.2022,27.07.5295
385,03,50 Old Shore Street,346530,Shakhty,RU,01.05.2023,20.12.6135
386,01,30 Onsgard Center,5404,Peña,PH,01.01.2023,22.06.3589
387,01,0245 Merrick Alley,,Paccha,PE,27.11.2022,02.07.6388
388,03,266 Comanche Way,83164 CEDEX,La Valette-du-Var,FR,27.02.2023,07.04.4601
389,02,29742 Larry Hill,,Phùng,VN,21.03.2023,15.07.9616
390,02,27 6th Pass,4620-400,Cabo de Vila,PT,05.05.2023,21.08.5517
391,02,88887 Onsgard Avenue,,Korhogo,CI,19.11.2022,13.01.2827
392,01,38103 Pierstorff Hill,,Xamba,CN,18.02.2023,15.08.5819
393,02,0734 Waxwing Hill,,Tolitoli,ID,13.05.2023,31.12.6690
394,04,4 Messerschmidt Place,,Guandukou,CN,28.01.2023,13.12.8627
395,01,0 Hayes Terrace,,Cikalong,ID,02.01.2023,21.04.5334
396,05,5 Straubel Circle,7450-227,Santo Aleixo,PT,20.10.2022,19.11.5095
397,01,014 Merrick Pass,,Beitai,CN,20.01.2023,12.07.5037
398,01,49 Basil Point,4335,Linmansangan,PH,27.02.2023,27.08.8953
399,05,57 Merchant Plaza,,Liuduzhai,CN,03.12.2022,15.07.8028
400,05,5 Summit Road,,Oebai,ID,04.01.2023,06.09.9653
401,03,3 Cherokee Drive,735 41,Petřvald,CZ,27.02.2023,30.07.7718
402,03,39069 Boyd Alley,,Lajarik,ID,08.10.2022,03.01.5695
403,02,65772 Saint Paul Way,64240-000,Piracuruca,BR,05.12.2022,02.10.5805
404,03,656 Truax Place,,Kumagunnam,NG,31.03.2023,04.09.4643
405,03,38943 Dahle Street,,Baiima,SL,06.03.2023,19.07.2966
406,03,9531 Ryan Plaza,143172,Shuya,RU,31.10.2022,04.07.4162
407,01,89836 Burning Wood Park,5155-705,Sebadelhe,PT,27.01.2023,11.08.2315
408,03,69 Sherman Street,422920,Bilyarsk,RU,27.02.2023,06.05.7043
409,03,7170 Maryland Drive,,Gaobeijie,CN,18.11.2022,11.09.4743
410,01,1979 Reinke Plaza,,Danxia,CN,01.04.2023,10.04.2772
411,04,07 Northfield Crossing,,Duancun,CN,05.02.2023,05.04.6956
412,01,07634 Bobwhite Pass,9951,Zastron,ZA,31.03.2023,27.01.3201
413,01,7951 Lakewood Gardens Pass,89-506,Kęsowo,PL,12.02.2023,17.02.4996
414,02,086 Gulseth Street,,Tirat Karmel,IL,05.12.2022,15.10.5133
415,05,445 Packers Alley,,Karanggeneng,ID,11.05.2023,19.02.8380
416,02,0336 Garrison Avenue,3784,Novo Selo,BG,03.01.2023,20.09.7474
417,01,004 Carberry Terrace,,Houjie,CN,23.10.2022,09.05.4396
418,03,70 Brentwood Terrace,,Checca,PE,29.01.2023,05.05.9584
419,02,020 Memorial Center,4805-583,Sande São Lourenço,PT,03.05.2023,21.01.7248
420,05,1 Harbort Parkway,,Bečej,RS,15.02.2023,12.10.3247
421,01,6080 Tomscot Place,,Sopla,ID,03.03.2023,30.08.9831
422,02,20 Mendota Plaza,86165-000,Florestópolis,BR,08.11.2022,17.05.8968
423,05,4 Hoard Street,,Beigucheng,CN,05.03.2023,14.08.4224
424,01,4160 Marcy Park,,Gosë e Madhe,AL,30.09.2022,10.08.3209
425,03,277 Ridge Oak Terrace,,El Paisnal,SV,15.11.2022,12.02.3955
426,03,01957 Maryland Point,32868,Orlando,US,17.03.2023,10.07.4764
427,04,1756 Manitowish Plaza,39750-000,Sabinópolis,BR,08.04.2023,08.03.8655
428,03,950 Anderson Parkway,78-410,Szczecinek,PL,10.03.2023,09.07.6803
429,01,48976 Arizona Crossing,,Otukpa,NG,28.11.2022,14.12.6817
430,03,468 Knutson Terrace,242774,Rognedino,RU,16.10.2022,16.04.4559
431,05,459 Granby Parkway,4960-160,Lage,PT,06.01.2023,17.05.6253
432,04,52031 Lillian Street,,Songlong,CN,08.11.2022,29.08.9745
433,05,2687 Jenifer Circle,447 93,Vårgårda,SE,28.02.2023,24.05.3733
434,03,34 Lake View Crossing,390507,Ryazan’,RU,25.02.2023,21.12.5205
435,04,9 Ridge Oak Way,,Longhu,CN,04.03.2023,11.08.2550
436,03,49 Pond Center,,Xinjie,CN,02.10.2022,12.06.9363
437,04,8565 Macpherson Trail,,Anju,KP,28.03.2023,06.11.9343
438,05,934 Toban Drive,62055 CEDEX,Saint-Laurent-Blangy,FR,15.10.2022,23.11.5518
439,01,65672 Grayhawk Pass,,Pulian,CN,10.11.2022,25.03.9900
440,01,71 Mariners Cove Center,,Feyẕābād,IR,24.11.2022,30.05.6045
441,05,06 Glendale Hill,1804,Ezeiza,AR,26.01.2023,02.04.8319
442,03,828 Tomscot Drive,,Prozor,BA,23.02.2023,02.04.6272
443,05,62 Commercial Plaza,,Cibangban Girang,ID,24.03.2023,09.03.7775
444,02,07765 Dottie Hill,,Sacsamarca,PE,17.10.2022,24.10.6166
445,02,22 Derek Road,0850,Dinahican,PH,09.04.2023,24.12.8513
446,03,34 Independence Park,,Ostojićevo,RS,18.02.2023,03.07.3730
447,04,47369 Spaight Junction,,Motupe,PE,09.01.2023,25.11.7129
448,01,2 Clemons Circle,,Babasakhib,AF,28.03.2023,19.10.8956
449,03,584 Southridge Parkway,981-3521,Nakamura,JP,12.10.2022,30.04.2158
450,03,59697 Swallow Court,,Xichangmen,CN,14.10.2022,08.10.8453
451,03,28041 Pleasure Park,182156,Nelidovo,RU,21.01.2023,22.11.9362
452,05,8367 Browning Crossing,601380,Raduzhnyy,RU,13.03.2023,27.01.7387
453,04,810 Norway Maple Junction,,Abonnema,NG,27.01.2023,28.01.8587
454,02,42015 Drewry Road,87400-000,Cruzeiro do Oeste,BR,16.11.2022,10.05.5764
455,02,533 6th Street,87630-000,Atalaia,BR,06.03.2023,16.04.4219
456,02,8289 Calypso Point,17209 CEDEX,Royan,FR,20.01.2023,01.01.8254
457,01,8 Hintze Circle,596 92,Skänninge,SE,22.02.2023,05.09.8765
458,03,74 Spohn Parkway,249432,Zhigalovo,RU,05.11.2022,18.08.9195
459,05,839 Buena Vista Park,,Liushikou,CN,27.03.2023,18.10.3818
460,04,85 Messerschmidt Way,30220,Sam Roi Yot,TH,19.04.2023,04.07.3091
461,04,3 Esker Street,8308,Unidad,PH,13.01.2023,05.03.8177
462,01,5029 International Lane,,Tianxing,CN,03.04.2023,13.06.8456
463,05,9 Sullivan Street,779-3610,Wakimachi,JP,20.03.2023,07.06.4141
464,04,5 Myrtle Point,,Thanh Ba,VN,09.12.2022,11.08.9061
465,05,0 Mcbride Junction,57148 CEDEX,Woippy,FR,18.02.2023,02.04.4632
466,03,67 Declaration Place,,Nyima,CN,29.10.2022,15.05.9272
467,03,2386 Nova Center,12205,Albany,US,02.05.2023,13.04.5526
468,02,81426 South Park,100 73,Stockholm,SE,19.03.2023,06.07.5195
469,05,3 Bluestem Lane,,Bluefields,JM,18.04.2023,28.06.3047
470,04,31863 Del Mar Center,618593,Krasnovishersk,RU,06.05.2023,25.12.3582
471,02,46 Heffernan Point,4023,San Pedro,PH,07.11.2022,24.11.8720
472,03,86925 Almo Trail,2400,Strumica,MK,20.02.2023,06.12.2219
473,03,61 Brickson Park Place,9545-524,São Vicente de Ferreira,PT,06.04.2023,23.12.3680
474,04,41 Calypso Trail,38-323,Żurowa,PL,12.01.2023,03.09.3868
475,05,337 Sullivan Place,56800-000,Afogados da Ingazeira,BR,21.04.2023,21.09.5499
476,04,95535 Melby Circle,403159,Sofrino,RU,28.11.2022,22.09.6326
477,04,9958 Artisan Road,362-0025,Ageoshimo,JP,30.12.2022,28.10.9290
478,03,6373 Hanover Drive,,Yantai,CN,24.04.2023,04.09.6918
479,05,44 Golf View Plaza,T9S,Athabasca,CA,03.03.2023,21.02.7148
480,05,500 Ryan Hill,,Padangtikar,ID,23.03.2023,12.02.9129
481,01,5 Redwing Pass,,Saryaghash,KZ,06.10.2022,23.05.2109
482,02,878 Thierer Park,,Buutuo,LR,26.04.2023,13.08.9932
483,01,13847 Fuller Trail,,‘Uzeir,IL,19.04.2023,30.06.2043
484,01,1306 Reindahl Terrace,,Cinunjang,ID,18.02.2023,05.01.9920
485,03,9 Beilfuss Avenue,1649,Yacimiento Río Turbio,AR,12.02.2023,07.04.7727
486,05,17 Morningstar Street,47361,Bulri,PK,23.03.2023,03.04.5657
487,05,36 Westend Point,,Barengkok Hilir,ID,26.11.2022,15.04.8217
488,05,06623 Becker Hill,64109 CEDEX,Bayonne,FR,24.03.2023,25.10.4462
489,03,86 Dawn Junction,397608,Teberda,RU,15.10.2022,25.08.3907
490,04,29 South Park,,Banyo,CM,10.10.2022,22.06.8341
491,04,34338 Cordelia Lane,,San Miguel,PE,22.10.2022,28.12.6442
492,03,3 Bunting Junction,,Puerto Natales,CL,02.05.2023,08.12.2350
493,01,630 Express Lane,,Huanoquite,PE,16.02.2023,24.09.7677
494,03,074 Corscot Road,,Nazareth,IL,10.11.2022,31.07.8756
495,04,96410 Hoepker Avenue,,Klevan’,UA,19.04.2023,15.10.9990
496,04,86882 Butterfield Junction,,Daminggong,CN,11.03.2023,12.05.3803
497,04,0512 Anzinger Hill,38740-000,Patrocínio,BR,31.03.2023,14.04.5667
498,01,63628 Bellgrove Parkway,33710,Saint Petersburg,US,24.10.2022,16.07.3991
499,03,18 Colorado Circle,82037 CEDEX,Montauban,FR,20.11.2022,09.02.7292
500,02,3 Anhalt Drive,,‘Ajlūn,JO,03.10.2022,24.04.3861
501,05,0065 Straubel Street,28-131,Solec-Zdrój,PL,08.02.2023,01.09.5950
502,01,177 Riverside Point,9610,Nunguan,PH,08.11.2022,30.01.7450
503,05,420 Graceland Place,58300-000,Santa Rita,BR,11.12.2022,23.09.6153
504,03,4549 Calypso Circle,,Kudang,ID,30.10.2022,30.12.3491
505,02,6196 Maple Wood Pass,,Noebana,ID,02.03.2023,15.06.8031
506,04,86 Mitchell Point,,Hoit Taria,CN,05.11.2022,28.05.3366
507,01,844 Crowley Crossing,3410,Nabīnagar,BD,31.03.2023,24.05.8997
508,04,0 Upham Court,668110,Chadan,RU,17.01.2023,01.09.7158
509,03,3112 Donald Circle,,Zipárion,GR,14.11.2022,17.04.7107
510,01,0 Parkside Point,,Banamba,ML,26.01.2023,16.08.3420
511,05,0 Ramsey Road,4650-576,Barroco,PT,30.11.2022,22.01.5411
512,05,5 Jenna Pass,8711,San Fernando,PH,24.12.2022,14.01.5827
513,03,72245 Russell Crossing,85200,Zhob,PK,09.05.2023,11.09.6201
514,03,3352 Derek Place,,Pondokwungu,ID,09.05.2023,12.07.9773
515,05,7 Delaware Court,,San Salvador,SV,06.12.2022,09.09.8944
516,04,56747 Pond Parkway,,Xinxu,CN,11.01.2023,21.09.8067
517,03,1785 Mosinee Road,731-1515,Mibu,JP,02.12.2022,10.02.2663
518,02,2 Bobwhite Alley,,Huajlaya,BO,13.04.2023,10.03.2330
519,03,9 Goodland Center,,Enjiang,CN,07.01.2023,13.10.9705
520,04,28 Schmedeman Center,1045,Jalaud,PH,25.04.2023,26.11.6316
521,01,70 Larry Plaza,,Macheng,CN,18.10.2022,11.04.6130
522,01,74536 Montana Point,88546,El Paso,US,17.03.2023,24.12.6627
523,04,8897 Sunfield Junction,05-530,Góra Kalwaria,PL,24.02.2023,14.04.3437
524,02,99771 Spenser Pass,,Banī Suwayf,EG,23.01.2023,27.05.7741
525,04,2 6th Pass,3714,Pozo Hondo,AR,20.02.2023,03.04.8249
526,01,7 David Alley,49033 CEDEX 01,Angers,FR,13.11.2022,16.06.3544
527,05,526 Logan Hill,2565-209,Dois Portos,PT,27.10.2022,15.09.9217
528,04,96460 Grim Pass,1216,Poroj,MK,10.05.2023,28.07.6448
529,04,52 Menomonie Hill,,Zhongshan,CN,20.04.2023,27.10.6330
530,04,60621 Anhalt Court,,Huaicheng,CN,08.10.2022,17.01.7499
531,04,961 Anderson Road,216790,Rudnya,RU,16.10.2022,22.11.4962
532,05,334 Cordelia Point,59-940,Węgliniec,PL,15.05.2023,19.05.4758
533,03,8 Prentice Plaza,424999,Yoshkar-Ola,RU,05.03.2023,09.05.2778
534,04,8250 Basil Circle,234518,Tierralta,CO,16.03.2023,12.09.9504
535,02,9609 Oneill Plaza,2512,Dagup,PH,11.04.2023,14.03.6029
536,04,61287 Quincy Avenue,,Xingquan,CN,02.10.2022,14.10.8929
537,04,164 North Place,18001,Puerto Barrios,GT,07.12.2022,26.11.9590
538,03,58654 Union Road,,Gouménissa,GR,16.04.2023,23.06.2388
539,05,49180 Dixon Street,,Madolenihm Municipality Government,FM,24.03.2023,31.12.5542
540,04,6 Burning Wood Center,9810,Bagumbayan,PH,22.11.2022,07.10.5892
541,05,1103 Barnett Alley,,Obas,PE,15.02.2023,14.12.7674
542,03,37839 Little Fleur Pass,,Banyumas,ID,23.12.2022,26.06.5281
543,01,6871 Lien Hill,4820,Palmerston North,NZ,22.11.2022,22.02.2540
544,04,5086 North Hill,,Sil-li,KP,01.02.2023,27.12.5715
545,05,7811 Gerald Place,,Tlogowetan,ID,07.12.2022,27.02.5181
546,01,1 Valley Edge Pass,8037,Zürich,CH,24.02.2023,17.11.2495
547,05,9 Oneill Lane,,Beni Khiar,TN,23.10.2022,02.11.3251
548,05,4673 Crowley Center,,Pajé,KM,20.04.2023,26.01.6602
549,03,7 Colorado Terrace,188502,Gorbunki,RU,03.03.2023,07.04.2637
550,05,7881 Thackeray Pass,,Nieuw Nickerie,SR,10.11.2022,31.01.8988
551,03,1209 Marcy Hill,,Fucheng,CN,07.12.2022,17.05.3513
552,04,759 Hudson Drive,473029,Guamal,CO,14.03.2023,16.07.6266
553,02,8890 Lien Junction,,Longquan,CN,18.03.2023,11.08.7799
554,01,692 Reinke Plaza,6110,Candoni,PH,14.04.2023,16.08.9993
555,04,49902 Crownhardt Hill,7505,Crnilište,MK,14.10.2022,03.11.4466
556,01,21560 Carioca Terrace,80804,München,DE,17.11.2022,06.01.8410
557,05,340 Spenser Avenue,,Bongandanga,CD,22.12.2022,06.10.3949
558,02,2 Blaine Road,647462,Khatanga,RU,24.01.2023,04.01.2038
559,04,75683 Havey Way,,Watubura,ID,22.11.2022,08.10.9627
560,04,4 American Ash Circle,,Linjiang,CN,12.10.2022,28.11.2953
561,05,5368 Ramsey Lane,103 11,Stockholm,SE,16.12.2022,27.02.3801
562,03,85902 Vidon Avenue,,Donghe,CN,06.03.2023,21.03.8596
563,01,05 Arkansas Crossing,44485,Warren,US,22.01.2023,25.01.3617
564,02,2 Alpine Place,,Ngadipuro,ID,22.02.2023,26.04.3280
565,04,71272 Petterle Center,N2L,Labelle,CA,12.11.2022,04.03.2950
566,05,85 Burrows Road,,Sirnaresmi,ID,08.01.2023,14.10.5670
567,03,23 Meadow Ridge Avenue,,Ngala,NG,24.04.2023,21.04.4687
568,05,14783 Express Center,676150,Tygda,RU,26.10.2022,19.05.9941
569,05,173 Twin Pines Terrace,,Songdong,CN,02.12.2022,01.06.7739
570,01,529 Doe Crossing Trail,153809,Ráquira,CO,10.04.2023,11.12.4943
571,05,27041 Schiller Plaza,,Dongshandi,CN,19.11.2022,05.04.5720
572,03,59 Evergreen Circle,,Māymay,AF,15.03.2023,15.11.3358
573,05,6 Gina Parkway,,Huaribamba,PE,24.01.2023,15.06.6335
574,05,75789 Vermont Court,3474,Chavarría,AR,17.03.2023,04.07.2759
575,05,8539 Meadow Ridge Plaza,62984,Emiliano Zapata,MX,26.02.2023,25.02.2648
576,01,1 Blackbird Avenue,33680,Tampa,US,16.05.2023,29.09.4267
577,02,32 Ludington Place,,Bihać,BA,04.11.2022,08.06.7619
578,03,06453 Mariners Cove Road,32-860,Czchów,PL,17.01.2023,24.07.9936
579,02,00 Hoard Hill,89295-000,Rio Negrinho,BR,04.02.2023,19.11.5276
580,02,52 Bluejay Road,24-170,Kurów,PL,16.01.2023,27.10.3299
581,02,3942 Shopko Park,,Sidikalang,ID,13.03.2023,08.12.8194
582,04,427 Sage Avenue,,Kalembutillu,ID,04.12.2022,19.05.6108
583,01,1339 Mosinee Circle,,Huamali,PE,25.12.2022,30.04.7547
584,03,6 Killdeer Park,4005,Balading,PH,31.10.2022,30.12.2979
585,04,0 Kinsman Alley,72-110,Przybiernów,PL,14.12.2022,11.10.3928
586,05,491 Spohn Terrace,,Xinqiao,CN,09.11.2022,06.08.9089
587,05,26342 Merchant Junction,,Kuznetsovs’k,UA,31.03.2023,06.11.6443
588,05,6 Mallard Parkway,93270,Azteca,MX,24.03.2023,12.11.7019
589,04,00 Express Place,49090,Dera Murād Jamāli,PK,11.04.2023,10.02.2376
590,04,1780 Emmet Center,3280,Colón,AR,22.03.2023,03.03.6086
591,05,0 Schmedeman Avenue,,Malangwa,NP,28.04.2023,13.09.7862
592,05,0 Arizona Parkway,13347,Berlin,DE,08.02.2023,21.07.5084
593,03,039 Red Cloud Parkway,,Tāybād,IR,01.12.2022,25.12.5633
594,05,4 Mcbride Way,1040,Šuto Orizare,MK,12.01.2023,11.03.9465
595,04,31201 Farwell Terrace,439 42,Postoloprty,CZ,16.05.2023,26.07.9899
596,05,06152 Dovetail Parkway,63-430,Odolanów,PL,09.04.2023,29.08.8080
597,02,96300 Laurel Street,94723,San Isidro,MX,01.05.2023,27.10.9584
598,01,741 Cascade Terrace,1211,København,DK,26.10.2022,07.03.3178
599,02,6 Hoard Drive,62880-000,Horizonte,BR,25.10.2022,02.10.9685
600,03,73167 Welch Crossing,,Armash,AM,16.05.2023,02.05.7067
601,04,049 Dawn Crossing,,Xinfu,CN,07.11.2022,07.07.3933
602,01,4646 Johnson Road,442185,Rtishchevo,RU,26.04.2023,09.09.9878
603,05,2421 Onsgard Road,27001,Vilnius,LT,27.03.2023,26.12.2147
604,04,984 Fisk Circle,,South Tangerang,ID,04.05.2023,01.06.2501
605,05,50825 Parkside Junction,056457,Hispania,CO,09.03.2023,05.01.7322
606,01,638 Burrows Circle,,Zhanjia,CN,10.01.2023,18.09.6512
607,01,60 Fordem Place,,Khānaqāh,AF,26.03.2023,13.02.5220
608,04,77113 3rd Park,,Oja,ID,07.04.2023,29.08.8942
609,03,68034 Corben Road,,Changgai,CN,12.10.2022,15.02.8821
610,04,5228 Green Plaza,,Duyure,HN,13.02.2023,16.05.7942
611,05,54424 Dryden Parkway,,Suai,TL,12.01.2023,23.03.3872
612,02,78 Sullivan Drive,,Utarapasar,ID,22.03.2023,26.12.9659
613,03,1826 Vera Center,6719,Talalora,PH,09.03.2023,13.12.4095
614,03,4735 Vernon Plaza,,Kutorejo,ID,14.01.2023,01.05.9137
615,05,7817 Buena Vista Place,68505,Lincoln,US,12.12.2022,24.04.8566
616,05,7144 Welch Court,,Serowe,BW,17.02.2023,22.05.9869
617,04,206 Nelson Road,6604,Bontoc,PH,16.03.2023,03.03.5587
618,02,9591 Corscot Court,,Maswa,TZ,07.10.2022,22.03.8043
619,03,82 Heffernan Junction,,Fucun,CN,28.02.2023,21.05.5790
620,05,8 Duke Road,,Néos Mylótopos,GR,09.12.2022,01.11.2159
621,01,4346 Hansons Lane,,Wonosari,ID,24.12.2022,26.08.6400
622,04,0 Anderson Street,,Padabeunghar,ID,14.11.2022,10.12.9554
623,01,1101 Lien Crossing,,Anlu,CN,28.03.2023,15.05.5582
624,04,3928 Dayton Junction,,Bandarbeyla,SO,21.11.2022,27.02.3269
625,04,60629 Mifflin Way,V6M,Vulcan,CA,21.10.2022,13.08.7521
626,04,3 Sunbrook Crossing,,Hacıqabul,AZ,05.11.2022,12.04.6037
627,01,1783 Armistice Pass,929-1811,Ninomiya,JP,29.01.2023,05.01.2068
628,05,9335 Buena Vista Junction,,Doujia,CN,01.01.2023,08.09.7713
629,03,5 Fulton Park,MD-5840,Mîndreşti,MD,24.03.2023,11.07.7880
630,03,016 Park Meadow Circle,427439,Votkinsk,RU,06.02.2023,11.05.2847
631,01,84568 Macpherson Lane,,Nunbaundelha,ID,01.10.2022,19.02.4671
632,03,4 Farmco Pass,,Klatakan,ID,06.11.2022,08.01.7560
633,04,22037 3rd Court,,Pu’er,CN,15.11.2022,16.01.6993
634,05,46 Crownhardt Terrace,,Layo,PE,21.04.2023,13.04.2490
635,02,01201 Barby Point,,Ciawi,ID,25.12.2022,02.05.4355
636,03,614 East Terrace,2264,Leidschendam,NL,16.02.2023,02.03.9795
637,01,35502 Prentice Junction,,Gaplokan,ID,02.04.2023,11.07.7999
638,01,16 Luster Crossing,748 94,Örbyhus,SE,06.11.2022,18.09.3506
639,02,9611 Cordelia Place,,Wanfa,CN,13.04.2023,02.02.3696
640,01,3 Westerfield Crossing,,Baisha,CN,24.10.2022,28.03.6774
641,03,64704 High Crossing Street,,Xihe,CN,09.04.2023,06.09.2890
642,03,4722 Carpenter Pass,,Kanbe,MM,05.05.2023,09.02.6478
643,03,642 Bay Lane,,Brak,ID,22.03.2023,20.12.6528
644,05,0313 Scofield Junction,,Yangchun,CN,29.10.2022,05.05.7741
645,04,2773 Veith Pass,88385-000,Penha,BR,27.03.2023,28.09.2655
646,02,11 Milwaukee Park,,Jati,ID,26.02.2023,27.09.9913
647,02,3709 Judy Street,164 83,Stockholm,SE,09.04.2023,14.02.7555
648,05,81 Thompson Parkway,,Yili,CN,25.10.2022,05.08.3095
649,02,95940 Milwaukee Terrace,4935-621,Vila Franca,PT,06.03.2023,10.10.4292
650,05,705 Nobel Place,,Jeberos,PE,05.12.2022,17.10.2381
651,01,14255 Chive Point,,Pangalangan,ID,25.04.2023,06.10.9949
652,04,57 Merchant Road,,Gandorhun,SL,30.11.2022,22.05.4984
653,02,17786 Melvin Terrace,,Tríkala,GR,08.12.2022,03.08.8784
654,03,398 Hagan Center,,Camplong,ID,08.01.2023,08.05.8718
655,01,52169 Dwight Point,4730-220,Agrela,PT,04.03.2023,15.11.7513
656,02,5423 Kipling Center,31-999,Kraków,PL,18.05.2023,20.12.4746
657,05,05 Green Park,49411 CEDEX,Saumur,FR,09.05.2023,12.08.4665
658,02,253 Bartelt Street,25610,Kuantan,MY,16.05.2023,12.11.3775
659,04,7 Orin Terrace,,Al Jawādīyah,SY,04.10.2022,20.05.3133
660,03,22 Sutherland Street,,Ketanggi,ID,06.05.2023,09.04.8476
661,03,71 Fisk Center,78786,Guadalupe,MX,05.04.2023,27.01.6944
662,04,0745 Vera Road,,Pingshui,CN,09.12.2022,13.03.7702
663,03,55854 Barnett Plaza,,Wenping,CN,23.11.2022,25.01.9573
664,05,1670 Hovde Lane,511-0514,Iwanai,JP,20.11.2022,10.12.6348
665,01,710 Ruskin Park,,Reshetylivka,UA,23.12.2022,01.11.7726
666,03,69 Gale Terrace,,Zaliznychne,UA,13.02.2023,23.12.7617
667,05,3049 Arrowood Point,,Sindangsuka,ID,14.02.2023,31.07.7219
668,03,2 Oak Circle,,Dmytrivka,UA,25.11.2022,23.03.4023
669,03,88 Harbort Hill,9760-016,Agualva,PT,18.04.2023,26.03.7506
670,04,8552 Park Meadow Alley,2705-126,Praia das Maçãs,PT,18.03.2023,13.10.5740
671,04,708 Hallows Point,,Holoriang,ID,01.01.2023,09.09.4697
672,04,98183 Prairie Rose Junction,,Kertorejo,ID,26.02.2023,18.05.5087
673,02,78 Loftsgordon Alley,,Cukalat,AL,14.01.2023,25.06.8281
674,01,1 Buena Vista Parkway,22011,Comapa,GT,22.11.2022,14.07.7591
675,03,0 Arkansas Pass,,Torez,UA,05.03.2023,12.10.6847
676,01,833 Jenifer Lane,75387,Dallas,US,07.11.2022,20.12.2099
677,05,4573 Dapin Way,,Changyi,CN,13.04.2023,26.04.3102
678,05,1934 Heath Junction,,Memaliaj,AL,09.11.2022,15.05.8460
679,04,0480 John Wall Center,6534,Balingoan,PH,05.12.2022,13.04.2752
680,05,05784 Bonner Point,294 21,Sölvesborg,SE,20.03.2023,30.06.9494
681,01,2490 Merry Place,,Huangcun,CN,05.01.2023,26.01.5250
682,01,637 Esch Junction,2615-221,Arcena,PT,22.02.2023,26.03.2147
683,01,60 Texas Trail,55460-000,Cupira,BR,15.11.2022,18.02.9536
684,01,49 Mccormick Point,,Banyutengah,ID,04.11.2022,04.12.4505
685,02,0 Fallview Circle,,Lingshan,CN,03.01.2023,14.04.5065
686,02,47 South Circle,2411,Dasol,PH,08.01.2023,02.01.4261
687,02,3 Susan Hill,,Zili,CN,27.01.2023,30.01.6320
688,01,885 Arkansas Alley,63150,Saint Louis,US,25.11.2022,18.09.8998
689,04,70576 Monterey Terrace,57301,Kabīrwāla,PK,05.04.2023,13.09.4730
690,02,29 Reindahl Trail,,Ḩalabjah,IQ,02.01.2023,29.05.5179
691,05,131 Glacier Hill Terrace,3440-635,Nagosela,PT,24.11.2022,05.10.8964
692,03,31072 Briar Crest Circle,,Geneng Tengah,ID,03.10.2022,11.03.8824
693,05,86519 Talmadge Street,,Wulijie,CN,06.05.2023,26.05.2429
694,03,124 Sutherland Drive,3405-305,Lajeosa,PT,30.03.2023,05.09.9587
695,04,588 Florence Hill,2445,Tres Arroyos,AR,15.02.2023,31.12.2672
696,02,910 Huxley Court,,Antananarivo,MG,24.01.2023,19.06.5136
697,05,02857 Springs Trail,,Georgetown,VC,25.11.2022,14.05.9697
698,05,43458 Blue Bill Park Circle,4158,La Calera,AR,14.12.2022,10.01.8807
699,01,917 Arrowood Plaza,,Keluke,CN,23.10.2022,02.01.6382
700,04,4 Golden Leaf Hill,22-604,Tarnawatka,PL,16.01.2023,29.08.5971
701,04,22 Loftsgordon Way,52081,Rasūlnagar,PK,09.11.2022,16.01.7380
702,03,72831 Moose Pass,,Ivanovo-Alekseyevka,KG,01.03.2023,19.05.5234
703,04,2582 Kinsman Way,,Beibao,CN,29.04.2023,14.06.7840
704,05,9765 Sullivan Hill,,Siluko,NG,05.02.2023,05.11.8153
705,01,9761 Hovde Lane,98815,Hienghène,NC,18.02.2023,23.08.3330
706,01,960 Dovetail Crossing,182647,Tver,RU,12.11.2022,22.03.9942
707,03,31977 Basil Trail,,San Antonio,VE,06.04.2023,26.05.9136
708,04,19067 Kipling Junction,,Curahuasi,PE,14.04.2023,03.06.2630
709,01,090 Drewry Hill,,Daping,CN,13.02.2023,08.12.7717
710,02,574 Trailsway Alley,41-106,Siemianowice Śląskie,PL,08.01.2023,26.05.5518
711,05,6264 Loeprich Street,1230,Gostivar,MK,06.12.2022,19.07.2289
712,01,05170 Delladonna Road,6201,Sibulan,PH,02.10.2022,21.07.4464
713,03,6 Shoshone Terrace,,Kademangan,ID,27.03.2023,22.06.6700
714,02,45470 Packers Avenue,,Sanfang,CN,18.01.2023,06.05.3560
715,04,144 Bunting Pass,,Gamping Lor,ID,13.12.2022,07.10.3185
716,03,3536 Porter Point,78460-000,Nobres,BR,07.10.2022,07.02.6148
717,05,68 Doe Crossing Hill,435 84,Mölnlycke,SE,04.02.2023,14.12.7399
718,05,8 Del Sol Terrace,,Portmore,JM,12.02.2023,17.08.8365
719,03,60 Superior Avenue,,Dembéni,KM,23.12.2022,27.01.5885
720,04,3 Hanover Road,,Shanyang,CN,21.12.2022,14.08.7877
721,03,75 Autumn Leaf Junction,,Xinpu,CN,17.03.2023,10.10.7689
722,01,833 Scofield Avenue,35530,Ekenäs,FI,17.04.2023,29.04.5767
723,03,9 Loftsgordon Alley,40400,Fovissste,MX,20.02.2023,02.12.4853
724,02,333 Browning Pass,,Mosquée,MA,23.02.2023,09.09.6376
725,05,3199 Luster Lane,13834 CEDEX,Châteaurenard,FR,26.04.2023,18.09.7243
726,04,0 Debs Pass,142450,Monino,RU,24.02.2023,05.02.5427
727,01,5014 Dwight Pass,28235,Charlotte,US,15.12.2022,21.04.5059
728,05,36193 Mallory Road,103 16,Stockholm,SE,02.12.2022,03.11.2224
729,02,18196 Springs Place,,Likasi,CD,24.03.2023,12.11.2170
730,01,37821 Union Road,382 08,Chvalšiny,CZ,22.02.2023,19.09.9840
731,01,8 Old Gate Avenue,48-320,Skoroszyce,PL,30.10.2022,22.12.3391
732,02,32 Monica Pass,,Valdemārpils,LV,03.10.2022,31.05.8924
733,03,018 Golf View Drive,87-220,Radzyń Chełmiński,PL,12.05.2023,21.08.4270
734,01,00 John Wall Road,,Khān Shaykhūn,SY,28.03.2023,18.01.3265
735,03,917 Mockingbird Place,,Höshööt,MN,11.01.2023,19.02.9814
736,02,677 Bunker Hill Street,59360-000,Parelhas,BR,22.01.2023,15.02.4645
737,05,16887 Sachs Hill,94636 CEDEX 1,Rungis,FR,02.10.2022,24.03.4021
738,01,241 Vidon Court,,Shani,NG,28.11.2022,06.12.7319
739,02,07467 Bayside Hill,,Kimch’aek-si,KP,14.10.2022,10.12.4063
740,05,84 Green Ridge Drive,632 32,Eskilstuna,SE,28.03.2023,10.02.3291
741,05,04266 Erie Pass,,Cezi,CN,16.05.2023,19.06.4471
742,05,22 Crest Line Alley,28990-000,Saquarema,BR,09.03.2023,03.08.5144
743,05,09 Shasta Road,,Sucre,EC,12.02.2023,14.09.9087
744,01,3 Kennedy Road,,Rrapë,AL,04.12.2022,19.02.3659
745,04,8012 Lighthouse Bay Road,452974,Tekstil’shchiki,RU,12.01.2023,26.08.9232
746,04,674 Graceland Drive,669-5313,Tsuruoka,JP,07.03.2023,01.11.6837
747,01,475 Hudson Alley,9500-014,Ponta Delgada,PT,04.11.2022,12.01.6794
748,03,548 Autumn Leaf Junction,6015,Lapu-Lapu City,PH,05.05.2023,25.10.8575
749,04,1 Mifflin Trail,,Dagda,LV,02.12.2022,12.07.2060
750,05,77 Dapin Alley,1253,Lampitak,PH,10.04.2023,22.02.6085
751,04,9 Vermont Crossing,16200-000,Birigui,BR,08.01.2023,08.08.8880
752,03,86333 Morningstar Court,88290,Los Fresnos,MX,14.05.2023,20.08.4221
753,02,761 Lighthouse Bay Court,,Drosiá,GR,19.10.2022,10.01.8259
754,04,431 Pierstorff Place,,Inyati,ZW,08.05.2023,04.07.8935
755,02,6 Moland Way,,Ar Ru’ays,QA,17.01.2023,01.06.9484
756,04,47164 Arapahoe Hill,,Cemara,ID,22.03.2023,27.05.8143
757,03,266 Crowley Terrace,,Trà Vinh,VN,11.11.2022,18.09.4495
758,02,9 Glendale Lane,,Niulanshan,CN,03.04.2023,04.01.2600
759,05,25 Scott Way,63057 CEDEX 1,Clermont-Ferrand,FR,25.01.2023,21.05.8849
760,02,0877 Glendale Way,,Marvdasht,IR,20.01.2023,27.08.8730
761,02,9 Kings Parkway,3129,Antipolo,PH,09.01.2023,18.08.5122
762,04,98 Riverside Point,17380-000,Brotas,BR,13.01.2023,17.02.9913
763,01,823 Ridgeview Park,12570-000,Aparecida,BR,15.02.2023,08.04.8975
764,03,8 Upham Drive,97-225,Ujazd,PL,28.01.2023,03.02.6670
765,05,6 Carberry Hill,,Cool űrhajó,AF,24.01.2023,06.02.8542
766,02,224 Stoughton Road,,Wufeng,CN,07.12.2022,10.09.7399
767,05,95 Hoard Pass,,Shuiying,CN,06.12.2022,24.09.3329
768,02,6864 Pine View Parkway,69639 CEDEX,Vénissieux,FR,25.04.2023,06.03.6967
769,01,1536 Morrow Pass,25709,Huntington,US,12.05.2023,03.10.8783
770,02,2 Larry Center,851 94,Sundsvall,SE,26.12.2022,29.06.6865
771,01,3657 Lunder Park,,El Ksour,TN,26.02.2023,05.04.8869
772,03,0 Hansons Road,5039,San Rafael,PH,04.12.2022,24.06.3954
773,01,3 Monterey Circle,692425,Kavalerovo,RU,11.04.2023,05.04.9631
774,03,97 Heffernan Park,3140-480,Portela,PT,28.10.2022,22.10.4019
775,04,77322 Golden Leaf Circle,5034,Binabaan,PH,03.10.2022,05.04.3838
776,03,029 Magdeline Court,142 50,Skogås,SE,07.04.2023,27.08.9481
777,03,0898 Westerfield Hill,2830-152,Santo André,PT,27.01.2023,24.11.7136
778,05,07883 Rockefeller Place,,Shahrīār,IR,08.04.2023,08.03.2792
779,04,04826 Acker Street,,Santa Rosa de Lima,SV,25.11.2022,09.07.7648
780,04,1142 Erie Parkway,,Haicheng,CN,26.10.2022,03.01.5183
781,03,2724 Sherman Terrace,94593 CEDEX 2,Rungis,FR,29.01.2023,24.07.9119
782,01,015 Pine View Park,,Bianba,CN,25.01.2023,27.09.6782
783,03,69 Onsgard Pass,9510,Alta,NO,21.11.2022,15.01.6785
784,04,83 Golf View Road,,Sanjiang,CN,16.10.2022,22.08.7531
785,04,54244 Straubel Park,,Taishan,CN,03.05.2023,21.03.6077
786,04,28628 3rd Place,07400-000,Arujá,BR,21.04.2023,07.02.4720
787,03,1253 Bashford Crossing,,Druya,BY,13.02.2023,24.07.6387
788,05,411 La Follette Way,,Jicun,CN,22.01.2023,19.08.2287
789,01,90 Shelley Lane,,Tilamuta,ID,01.04.2023,25.08.6522
790,04,674 Carpenter Way,,Dushan,CN,25.12.2022,17.06.7795
791,03,9801 Montana Drive,,Aráchova,GR,12.04.2023,15.02.6614
792,02,5833 Heffernan Avenue,54300,Lappeenranta,FI,27.02.2023,19.10.6424
793,01,6 Kinsman Crossing,,Tcholliré,CM,31.12.2022,17.07.6025
794,01,449 Westerfield Junction,141032,Yaroslavskiy,RU,13.12.2022,16.10.5756
795,01,90 Buena Vista Plaza,,Nirgua,VE,01.03.2023,20.03.6683
796,05,63 Coolidge Alley,6419,San Vicente,PH,29.10.2022,17.04.9487
797,01,29 Larry Parkway,,Dunhua,CN,29.04.2023,27.05.7715
798,01,63 Jenna Pass,,Imsil,KR,09.10.2022,12.06.4776
799,03,85 International Point,,Chengdong,CN,03.04.2023,09.05.7239
800,02,2407 Dakota Court,407-0002,Uchimaru,JP,05.03.2023,27.01.7142
801,03,9 Golf Park,,Tacheng,CN,19.11.2022,09.08.9214
802,05,5346 Russell Street,186120,Pryazha,RU,05.04.2023,27.09.9617
803,03,2 Monica Street,79518,Nusajaya,MY,19.03.2023,22.06.5509
804,02,45 Ohio Hill,,Manevychi,UA,17.01.2023,31.08.7199
805,05,79151 Veith Alley,,Madīnat Sittah Uktūbar,EG,18.05.2023,27.12.9694
806,02,38 Logan Park,6840,Ceres,ZA,21.01.2023,05.02.8902
807,02,3167 Clove Center,,Jishui,CN,04.12.2022,07.11.3064
808,04,5 Bluestem Hill,1066,Taypano,PH,31.01.2023,15.05.7409
809,01,7019 Mitchell Hill,9611,Mamali,PH,24.03.2023,01.08.7419
810,03,51791 Trailsway Junction,,Zhenshan,CN,10.10.2022,21.09.6709
811,03,96978 Kenwood Park,52332,Pueblo Nuevo,MX,07.12.2022,20.10.9986
812,05,812 Comanche Alley,,Jielin,CN,25.04.2023,20.07.2134
813,02,8 Rieder Hill,2855-609,Verdizela,PT,03.02.2023,09.05.6641
814,03,828 Veith Way,01901,Nurmijärvi,FI,27.10.2022,24.04.5895
815,03,28753 Birchwood Terrace,27929 CEDEX 9,Évreux,FR,28.12.2022,08.09.8220
816,05,10119 Straubel Court,88-230,Piotrków Kujawski,PL,08.11.2022,10.03.5701
817,03,13 Lukken Pass,L2A,Parrsboro,CA,02.05.2023,16.09.4816
818,02,04 Haas Center,96130,Nong Bua Lamphu,TH,26.04.2023,08.06.7451
819,02,5415 Merry Hill,,Irapa,VE,05.04.2023,21.10.6000
820,02,600 Judy Pass,4640,La Falda,AR,02.04.2023,13.01.2551
821,03,50924 Village Drive,80045,Aurora,US,14.02.2023,20.07.4061
822,01,7 Leroy Pass,798 45,Seč,CZ,01.05.2023,27.01.8339
823,04,8075 Moose Drive,,Qiryat Shemona,IL,12.02.2023,05.10.4129
824,02,9730 Golf Avenue,,Huayacundo Arma,PE,07.05.2023,05.02.6466
825,05,409 Drewry Street,50201,Nicoya,CR,06.11.2022,28.04.8824
826,04,751 Dorton Road,,Mujur Satu,ID,03.11.2022,07.06.2557
827,02,6 Dakota Trail,7020,Aurora,PH,19.02.2023,20.03.9287
828,02,40 Meadow Vale Trail,83700-000,Araucária,BR,01.02.2023,15.04.6265
829,04,07873 Crest Line Plaza,,Simbal,PE,02.10.2022,07.10.6252
830,03,179 Monica Trail,,Sarulla,ID,16.11.2022,22.01.8858
831,02,572 Hanover Point,11511,El Cacao,DO,02.03.2023,23.11.8253
832,02,5733 Elka Court,G3M,Donnacona,CA,25.10.2022,22.10.6066
833,01,9956 Havey Road,641400,Glyadyanskoye,RU,10.04.2023,04.09.8015
834,01,64479 High Crossing Pass,14700-000,Bebedouro,BR,08.11.2022,04.04.6739
835,05,1695 Susan Crossing,696 19,Mikulčice,CZ,29.03.2023,16.08.5714
836,03,966 Farragut Lane,,Fuliang,CN,05.02.2023,16.03.6086
837,02,65 Debra Way,,Nkayi,CG,04.05.2023,12.01.8628
838,04,00543 Brown Parkway,,Coro,VE,10.05.2023,12.02.2158
839,01,31 Twin Pines Junction,10505,Partido,DO,10.01.2023,15.01.4999
840,04,3858 Rutledge Center,,Luohuang,CN,17.02.2023,11.03.9351
841,05,694 Delaware Point,4410,Ragay,PH,04.01.2023,09.03.2264
842,02,3916 Dorton Terrace,352 44,Växjö,SE,31.12.2022,01.01.6335
843,03,9628 Jenna Avenue,,Dongfanghong,CN,19.12.2022,25.03.9287
844,04,17350 Stone Corner Street,75600-000,Goiatuba,BR,25.03.2023,05.09.3963
845,04,0 Grayhawk Park,31136,Atlanta,US,01.03.2023,04.04.5519
846,04,65 Butternut Place,7947,Pleasant Point,NZ,01.02.2023,06.03.9170
847,03,86659 Coleman Park,5340,Tinogasta,AR,27.12.2022,01.05.2239
848,05,5 Dayton Park,,Sancha,CN,16.01.2023,24.05.3906
849,02,5387 Haas Point,622052,Nizhniy Tagil,RU,09.03.2023,16.03.2676
850,01,67 Mockingbird Road,,Pasirmalang,ID,03.10.2022,08.02.2778
851,02,36355 Brickson Park Pass,69441 CEDEX 03,Lyon,FR,01.03.2023,07.12.9683
852,04,88 Corben Pass,90035,Los Angeles,US,17.11.2022,08.05.6533
853,02,64 Hollow Ridge Pass,309-1127,Shimodate,JP,13.03.2023,16.12.8831
854,05,3305 Susan Hill,,Muhoroni,KE,11.03.2023,02.07.3891
855,02,0768 Heath Hill,,Kyonju,KR,30.09.2022,28.09.6180
856,03,33 Schlimgen Drive,4119,Amadeo,PH,06.05.2023,17.09.3274
857,01,3 Gateway Way,,Aguada de Pasajeros,CU,09.02.2023,24.08.9189
858,02,436 Boyd Park,4503,Guinobatan,PH,25.02.2023,20.03.6653
859,04,4883 Chive Park,117 68,Stockholm,SE,17.11.2022,06.03.2045
860,04,9718 Stang Circle,,Nīca,LV,05.02.2023,25.06.5351
861,03,161 Barby Court,P0M,Barraute,CA,08.02.2023,29.04.7100
862,03,479 Brown Terrace,,Biyang,CN,01.11.2022,05.09.5204
863,03,7 Welch Junction,,Cibeureum,ID,12.04.2023,30.01.4847
864,03,5638 Bobwhite Center,,Guleluke,CN,02.05.2023,16.10.5808
865,05,20 Ilene Circle,4332,Cawayan Bugtong,PH,15.02.2023,21.08.8225
866,01,4467 Erie Park,,Nevesinje,BA,07.10.2022,04.03.9717
867,02,59248 Acker Center,94952 CEDEX 9,Créteil,FR,05.05.2023,06.12.2260
868,03,36 Mitchell Circle,2422,Taloy,PH,18.10.2022,22.01.6712
869,04,62 Calypso Pass,,Jingjiang,CN,26.01.2023,04.11.2183
870,02,70 Lyons Center,76100-000,São Luís de Montes Belos,BR,09.11.2022,11.02.2716
871,01,864 Comanche Way,300-0636,Edosaki,JP,01.12.2022,16.07.7487
872,01,2 Sutteridge Drive,34308,Jakšić,HR,02.01.2023,18.06.2724
873,03,735 Shelley Junction,13456 CEDEX 13,Marseille,FR,24.02.2023,28.01.9096
874,04,714 7th Pass,,Nangerang,ID,11.11.2022,25.03.9858
875,03,736 Barby Circle,0244,Moerewa,NZ,26.12.2022,02.05.5318
876,05,29 Farragut Place,72234 CEDEX,Arnage,FR,05.10.2022,18.06.5586
877,03,32 Drewry Circle,,Dartang,CN,23.03.2023,05.09.9010
878,05,976 Armistice Center,,Sukapura,ID,22.03.2023,14.03.9021
879,03,3 Luster Plaza,2517,Cantoria,PH,18.12.2022,15.06.9009
880,05,607 Judy Alley,85-156,Uherce Mineralne,PL,29.04.2023,31.10.4221
881,04,837 Corry Trail,999-7638,Fujioka,JP,01.01.2023,11.08.4742
882,02,06009 Fieldstone Street,6711,Santo Niño,PH,21.02.2023,11.05.3638
883,05,57831 Arizona Terrace,471 23,Zákupy,CZ,12.01.2023,21.05.6561
884,05,06563 Nelson Pass,9675-165,Ribeira Quente,PT,10.11.2022,07.09.8187
885,03,80734 Lake View Court,14470-000,Pedregulho,BR,16.05.2023,30.12.4605
886,03,64095 Bayside Hill,,Rongdoi,CN,13.11.2022,25.10.8977
887,04,591 Oxford Circle,4415,La Poma,AR,17.03.2023,11.04.5871
888,01,6777 Ruskin Place,70160,Bang Phae,TH,07.05.2023,06.09.5404
889,01,5 Helena Circle,,Gandoang,ID,17.12.2022,03.01.5593
890,01,09 Thackeray Hill,,Kobyzhcha,UA,04.10.2022,28.11.2024
891,02,783 Lawn Avenue,5300,Puerto Princesa,PH,22.02.2023,08.02.5013
892,03,483 Village Alley,520-2541,Okaya,JP,22.11.2022,18.12.5426
893,01,82499 Bay Trail,V2X,Walnut Grove,CA,22.12.2022,21.07.2982
894,01,2074 Caliangt Circle,363104,Grazhdanskoye,RU,26.03.2023,20.04.4342
895,02,944 Coleman Hill,,Polonne,UA,21.12.2022,17.02.6709
896,04,41269 Meadow Valley Plaza,45249,Cincinnati,US,10.12.2022,10.12.4147
897,03,7 Starling Drive,67710,Las Palmas,MX,16.05.2023,29.08.9808
898,05,133 Moulton Court,,Kratié,KH,03.10.2022,20.04.9161
899,04,40 Packers Plaza,456470,Uyskoye,RU,10.04.2023,19.07.3514
900,05,58 Kingsford Pass,,Meghrashen,AM,17.11.2022,09.11.9492
901,03,68 Stang Terrace,929-0323,Tsubata,JP,16.04.2023,14.09.6430
902,02,64 Loomis Center,,Xinfang,CN,22.03.2023,01.06.4495
903,04,2 Merchant Place,,Ḩadādah,YE,28.02.2023,20.02.8258
904,01,69 Everett Court,2504,Agoo,PH,04.04.2023,07.01.5412
905,04,7 Fair Oaks Hill,,Yongning,CN,28.02.2023,01.12.3709
906,05,2918 New Castle Parkway,542 01,Žacléř,CZ,05.12.2022,20.10.6442
907,02,85270 Nova Pass,,Urambo,TZ,01.05.2023,22.02.5144
908,05,32 Fallview Pass,61663,La Loma,MX,15.11.2022,26.05.3182
909,05,358 Westridge Plaza,,Heqian,CN,13.05.2023,21.04.8592
910,05,11 Truax Parkway,78205,San Antonio,US,21.01.2023,20.11.6975
911,04,7 Clarendon Circle,,Houxiang,CN,24.04.2023,09.12.8047
912,05,52800 Sutteridge Place,303320,Zmiyëvka,RU,10.01.2023,31.05.4719
913,03,894 Havey Way,,Baisha,CN,20.11.2022,10.12.5458
914,04,94 Nova Park,78967-800,Buritis,BR,31.10.2022,29.06.6845
915,04,962 Commercial Drive,311-2424,Itako,JP,28.03.2023,22.03.9943
916,04,16105 Michigan Way,,Lingshan,CN,14.01.2023,06.04.6116
917,03,37788 West Alley,,Jugezhuang,CN,03.11.2022,10.09.6694
918,01,4 2nd Park,96190,Sukhirin,TH,16.12.2022,09.06.5018
919,05,06 Del Sol Road,0390,Rustenburg,ZA,09.05.2023,05.04.3421
920,03,121 Park Meadow Place,783 71,Holice,CZ,28.10.2022,08.10.7559
921,03,96 6th Avenue,,Longbu,CN,05.02.2023,23.12.8592
922,04,7792 Ramsey Park,,Yunfeng,CN,06.05.2023,13.05.2114
923,04,7 Daystar Plaza,,Zhabagly,KZ,12.10.2022,16.11.4401
924,04,54 Sauthoff Trail,646760,Pavlogradka,RU,10.12.2022,09.03.3412
925,01,81 Independence Way,,Proletar,TJ,15.05.2023,15.04.7069
926,01,4 Kinsman Street,,Cirompang,ID,10.02.2023,05.02.2881
927,05,4 Spaight Hill,7803,Hobart,AU,27.12.2022,04.03.7245
928,04,794 Green Ridge Place,,Al Wardānīn,TN,01.02.2023,02.06.5371
929,04,92635 Logan Street,,Jindong,CN,18.02.2023,25.11.3798
930,02,17461 Almo Street,5311,Saidpur,BD,18.11.2022,05.10.5797
931,05,77256 Lotheville Park,2512,Dagup,PH,28.10.2022,13.09.7327
932,04,0 Hallows Avenue,51513,Omišalj,HR,18.02.2023,03.04.5447
933,02,2 Wayridge Crossing,,Stepove,UA,26.12.2022,05.02.3724
934,01,993 Ohio Alley,,Smimou,MA,30.01.2023,24.08.6552
935,05,7450 School Road,8890,Tvŭrditsa,BG,11.11.2022,01.05.6124
936,03,94736 Division Circle,,Caobi,CN,28.10.2022,10.08.2832
937,02,585 Huxley Point,669 02,Konice,CZ,10.01.2023,25.01.6291
938,02,64578 Ilene Road,MD-6801,Ialoveni,MD,04.04.2023,08.07.9172
939,01,939 Becker Road,56110,Khu Khan,TH,14.05.2023,11.12.5071
940,02,9455 Bartillon Place,6510,Cox’s Bāzār,BD,26.04.2023,10.03.8367
941,02,69 Loeprich Street,,Oulad Frej,MA,21.03.2023,11.09.4226
942,05,4033 Nobel Street,,Cẩm Phả Mines,VN,24.03.2023,28.10.2987
943,05,08 Green Way,,Metsamor,AM,08.12.2022,14.08.4694
944,05,3 Granby Circle,,Kampong Thom,KH,13.05.2023,08.12.5010
945,05,3 Ridgeview Avenue,,Pasolapida,ID,09.05.2023,20.01.3963
946,01,396 Bay Parkway,,Tsagaanders,MN,26.03.2023,06.09.5069
947,02,8566 Dixon Alley,4640,La Falda,AR,15.11.2022,15.12.3861
948,05,250 Sunfield Avenue,4850-304,Pombal,PT,29.11.2022,15.04.2207
949,01,14 Fairfield Drive,611 81,Nyköping,SE,24.12.2022,14.11.2276
950,01,96 Sunnyside Alley,,Wagar,SD,09.05.2023,10.11.4300
951,01,28496 Talisman Way,6530,Carlos Casares,AR,26.03.2023,25.02.9589
952,03,087 Veith Point,,Sruni,ID,27.11.2022,20.01.8536
953,02,20 Jay Place,,Paloh,ID,15.02.2023,08.04.6588
954,01,3 Delaware Street,,Zhongben,CN,07.05.2023,24.06.9130
955,05,515 Continental Street,,Magburaka,SL,02.10.2022,19.04.2030
956,04,92891 Stephen Center,45208,Cincinnati,US,01.10.2022,12.12.2110
957,01,6324 Mesta Circle,50781,Jalālpur,PK,17.10.2022,18.03.9266
958,04,83 Johnson Court,,Khawrah,YE,13.04.2023,29.02.7780
959,02,55 Magdeline Plaza,,Baganhilir,ID,16.02.2023,19.04.3617
960,03,04 Shoshone Crossing,,Dongqu,CN,15.01.2023,18.08.5955
961,01,2508 Farwell Way,10600,Kotikawatta,LK,23.04.2023,06.04.2965
962,01,38 Di Loreto Crossing,622910,Uralets,RU,01.02.2023,03.10.4526
963,05,115 Havey Avenue,,Sumurber,ID,12.02.2023,22.03.4748
964,03,019 Village Green Crossing,18800-000,Piraju,BR,03.12.2022,06.01.3574
965,01,8 Tennessee Hill,44159 CEDEX,Ancenis,FR,07.04.2023,22.09.2262
966,03,6 Raven Alley,6600,Koper,SI,17.01.2023,28.10.5561
967,04,81489 Heath Pass,11205,Comendador,DO,12.10.2022,09.09.6223
968,04,3707 Dawn Way,,Yima,CN,24.10.2022,11.04.2741
969,04,736 Gina Junction,,Angkimang,ID,17.03.2023,12.04.4866
970,05,53 Glendale Way,,Wangcungang,CN,17.12.2022,16.03.4048
971,01,73806 Calypso Way,5032,Igang,PH,08.01.2023,06.05.9402
972,03,3 Goodland Pass,,Khairiahmandah,ID,09.05.2023,25.12.4352
973,01,386 Chive Plaza,7940,Timaru,NZ,09.03.2023,31.10.6927
974,01,92 New Castle Point,142263,Pushchino,RU,07.04.2023,03.02.8233
975,01,78011 Lake View Point,39830-000,Itambacuri,BR,29.10.2022,23.02.2594
976,01,757 Bartelt Road,2005,Calangain,PH,30.10.2022,06.11.5668
977,03,7942 Hooker Hill,3205,Hennenman,ZA,05.12.2022,11.10.9609
978,03,8713 Mcbride Plaza,33314 CEDEX,Arcachon,FR,29.12.2022,09.11.3727
979,04,367 Ilene Way,8359,Malko Tŭrnovo,BG,30.12.2022,19.09.5537
980,01,9999 Summerview Park,9604,Parang,PH,19.12.2022,15.11.2103
981,05,1 Leroy Point,,Fada N'gourma,BF,21.04.2023,04.05.2488
982,04,9721 Valley Edge Court,2559,Cintra,AR,30.01.2023,21.04.6446
983,01,37853 Little Fleur Circle,432980,Ulyanovsk,RU,24.04.2023,30.05.8048
984,04,938 Havey Road,,Guomaying,CN,15.10.2022,26.10.8983
985,02,9 Pond Way,0550,Rimpeso,PH,26.11.2022,17.04.8382
986,03,56453 Morning Crossing,,Kalangan,ID,08.11.2022,30.10.3940
987,04,28 Onsgard Parkway,,Danxi,CN,17.04.2023,12.06.8459
988,02,6 Ramsey Trail,,Lionel Town,JM,10.03.2023,08.03.8282
989,03,06441 Esch Drive,,Nūr,IR,04.01.2023,15.02.2483
990,02,85504 Gulseth Pass,29305,Spartanburg,US,15.10.2022,25.11.7870
991,02,44067 Service Parkway,764008,Jamundí,CO,09.11.2022,30.06.9108
992,03,157 Schmedeman Avenue,,Jiaobei,CN,31.12.2022,06.03.2402
993,04,71319 Meadow Ridge Lane,143912,Zelenograd,RU,08.11.2022,15.08.5498
994,03,8417 Summit Hill,,Hengshan,CN,01.10.2022,14.04.4978
995,01,6118 Steensland Crossing,439 42,Postoloprty,CZ,05.10.2022,27.08.4608
996,01,45710 Dorton Point,,Yuscarán,HN,24.11.2022,17.12.6331
997,02,42 Hoepker Place,13393 CEDEX 13,Marseille,FR,06.01.2023,14.01.3062
998,05,85519 Homewood Terrace,,Divo,CI,21.02.2023,10.07.2862
999,04,5 Buell Drive,,Yeosu,KR,22.02.2023,17.02.8768
1000,05,2 Blaine Road,15700-000,Jales,BR,13.01.2023,06.04.5583
